start=new Date('2022-04-03T00:00:00.000Z').valueOf();
sats=[{"CLASSIFICATION_TYPE":"U","RA_OF_ASC_NODE":"202.7107","APOAPSIS":"548.250","MEAN_ANOMALY":"295.8926","REF_FRAME":"TEME","SITE":"AFETR","CENTER_NAME":"EARTH","FILE":"3385473","GP_ID":"200323016","LAUNCH_DATE":"2021-03-11","ELEMENT_SET_NO":"999","INCLINATION":"53.0529","COUNTRY_CODE":"US","EPOCH":"2022-04-02T15:47:40.010208","MEAN_MOTION_DOT":"-0.00003968","NORAD_CAT_ID":"47799","ARG_OF_PERICENTER":"64.2215","OBJECT_TYPE":"PAYLOAD","TLE_LINE2":"2 47799  53.0529 202.7107 0001476  64.2215 295.8926 15.06395388 60273","BSTAR":"-0.00024763000000","RCS_SIZE":"LARGE","MEAN_ELEMENT_THEORY":"SGP4","REV_AT_EPOCH":"6027","MEAN_MOTION_DDOT":"0.0000000000000","TIME_SYSTEM":"UTC","SEMIMAJOR_AXIS":"6925.363","DECAY_DATE":null,"ECCENTRICITY":"0.00014760","MEAN_MOTION":"15.06395388","EPHEMERIS_TYPE":"0","OBJECT_NAME":"STARLINK-2380","PERIOD":"95.592","PERIAPSIS":"546.206","TLE_LINE1":"1 47799U 21018N   22092.65810197 -.00003968  00000-0 -24763-3 0  9993","OBJECT_ID":"2021-018N"},{"SEMIMAJOR_AXIS":"6925.339","DECAY_DATE":null,"ECCENTRICITY":"0.00017100","MEAN_MOTION":"15.06403047","EPHEMERIS_TYPE":"0","OBJECT_NAME":"STARLINK-2381","PERIAPSIS":"546.020","PERIOD":"95.592","TLE_LINE1":"1 47800U 21018P   22092.61386843  .00001041  00000-0  88759-4 0  9992","OBJECT_ID":"2021-018P","TLE_LINE2":"2 47800  53.0544 202.9106 0001710  68.5928 291.5244 15.06403047 60271","BSTAR":"0.00008875900000","RCS_SIZE":"LARGE","MEAN_ELEMENT_THEORY":"SGP4","REV_AT_EPOCH":"6027","MEAN_MOTION_DDOT":"0.0000000000000","TIME_SYSTEM":"UTC","LAUNCH_DATE":"2021-03-11","ELEMENT_SET_NO":"999","INCLINATION":"53.0544","COUNTRY_CODE":"US","EPOCH":"2022-04-02T14:43:58.232352","MEAN_MOTION_DOT":"0.00001041","NORAD_CAT_ID":"47800","ARG_OF_PERICENTER":"68.5928","OBJECT_TYPE":"PAYLOAD","CLASSIFICATION_TYPE":"U","RA_OF_ASC_NODE":"202.9106","APOAPSIS":"548.388","MEAN_ANOMALY":"291.5244","REF_FRAME":"TEME","SITE":"AFETR","CENTER_NAME":"EARTH","FILE":"3385473","GP_ID":"200323767"},{"OBJECT_ID":"2021-018Q","TLE_LINE1":"1 47801U 21018Q   22092.58209506  .00010978  00000-0  75456-3 0  9997","PERIOD":"95.592","PERIAPSIS":"546.110","OBJECT_NAME":"STARLINK-2382","EPHEMERIS_TYPE":"0","MEAN_MOTION":"15.06409532","ECCENTRICITY":"0.00015510","DECAY_DATE":null,"SEMIMAJOR_AXIS":"6925.319","TIME_SYSTEM":"UTC","MEAN_MOTION_DDOT":"0.0000000000000","REV_AT_EPOCH":"6020","RCS_SIZE":"LARGE","MEAN_ELEMENT_THEORY":"SGP4","BSTAR":"0.00075456000000","TLE_LINE2":"2 47801  53.0481 208.1468 0001551  69.8168 290.2988 15.06409532 60203","OBJECT_TYPE":"PAYLOAD","ARG_OF_PERICENTER":"69.8168","NORAD_CAT_ID":"47801","MEAN_MOTION_DOT":"0.00010978","EPOCH":"2022-04-02T13:58:13.013184","INCLINATION":"53.0481","COUNTRY_CODE":"US","ELEMENT_SET_NO":"999","LAUNCH_DATE":"2021-03-11","GP_ID":"200322015","FILE":"3385473","CENTER_NAME":"EARTH","SITE":"AFETR","MEAN_ANOMALY":"290.2988","REF_FRAME":"TEME","APOAPSIS":"548.258","RA_OF_ASC_NODE":"208.1468","CLASSIFICATION_TYPE":"U"},{"ELEMENT_SET_NO":"999","COUNTRY_CODE":"US","INCLINATION":"53.0535","LAUNCH_DATE":"2021-03-11","NORAD_CAT_ID":"47802","EPOCH":"2022-04-02T16:40:05.233728","MEAN_MOTION_DOT":"0.00016893","OBJECT_TYPE":"PAYLOAD","ARG_OF_PERICENTER":"73.9030","APOAPSIS":"548.179","CLASSIFICATION_TYPE":"U","RA_OF_ASC_NODE":"227.5326","SITE":"AFETR","REF_FRAME":"TEME","MEAN_ANOMALY":"286.2105","FILE":"3385473","GP_ID":"200322265","CENTER_NAME":"EARTH","DECAY_DATE":null,"ECCENTRICITY":"0.00013310","SEMIMAJOR_AXIS":"6925.392","MEAN_MOTION":"15.06385755","EPHEMERIS_TYPE":"0","OBJECT_NAME":"STARLINK-2383","PERIOD":"95.593","PERIAPSIS":"546.335","OBJECT_ID":"2021-018R","TLE_LINE1":"1 47802U 21018R   22092.69450502  .00016893  00000-0  11507-2 0  9992","REV_AT_EPOCH":"5994","TLE_LINE2":"2 47802  53.0535 227.5326 0001331  73.9030 286.2105 15.06385755 59947","BSTAR":"0.00115070000000","RCS_SIZE":"LARGE","MEAN_ELEMENT_THEORY":"SGP4","MEAN_MOTION_DDOT":"0.0000000000000","TIME_SYSTEM":"UTC"},{"FILE":"3385473","GP_ID":"200323517","CENTER_NAME":"EARTH","SITE":"AFETR","REF_FRAME":"TEME","MEAN_ANOMALY":"308.0315","APOAPSIS":"548.266","RA_OF_ASC_NODE":"202.8582","CLASSIFICATION_TYPE":"U","OBJECT_TYPE":"PAYLOAD","ARG_OF_PERICENTER":"52.0807","NORAD_CAT_ID":"47803","MEAN_MOTION_DOT":"0.00009059","EPOCH":"2022-04-02T14:59:53.805120","COUNTRY_CODE":"US","INCLINATION":"53.0539","ELEMENT_SET_NO":"999","LAUNCH_DATE":"2021-03-11","TIME_SYSTEM":"UTC","MEAN_MOTION_DDOT":"0.0000000000000","REV_AT_EPOCH":"6027","RCS_SIZE":"LARGE","MEAN_ELEMENT_THEORY":"SGP4","BSTAR":"0.00062645000000","TLE_LINE2":"2 47803  53.0539 202.8582 0001468  52.0807 308.0315 15.06388168 60278","OBJECT_ID":"2021-018S","TLE_LINE1":"1 47803U 21018S   22092.62492830  .00009059  00000-0  62645-3 0  9992","PERIOD":"95.593","PERIAPSIS":"546.233","OBJECT_NAME":"STARLINK-2384","EPHEMERIS_TYPE":"0","MEAN_MOTION":"15.06388168","ECCENTRICITY":"0.00014680","DECAY_DATE":null,"SEMIMAJOR_AXIS":"6925.385"},{"OBJECT_TYPE":"PAYLOAD","ARG_OF_PERICENTER":"61.2788","COUNTRY_CODE":"US","INCLINATION":"53.0561","ELEMENT_SET_NO":"999","LAUNCH_DATE":"2021-03-11","NORAD_CAT_ID":"47804","MEAN_MOTION_DOT":"-0.00000247","EPOCH":"2022-04-02T16:56:39.892992","FILE":"3385473","GP_ID":"200323267","CENTER_NAME":"EARTH","APOAPSIS":"548.334","RA_OF_ASC_NODE":"202.4929","CLASSIFICATION_TYPE":"U","SITE":"AFETR","MEAN_ANOMALY":"298.8366","REF_FRAME":"TEME","PERIAPSIS":"546.058","PERIOD":"95.592","OBJECT_NAME":"STARLINK-2385","OBJECT_ID":"2021-018T","TLE_LINE1":"1 47804U 21018T   22092.70601728 -.00000247  00000-0  23354-5 0  9997","ECCENTRICITY":"0.00016430","DECAY_DATE":null,"SEMIMAJOR_AXIS":"6925.331","MEAN_MOTION":"15.06405823","EPHEMERIS_TYPE":"0","MEAN_MOTION_DDOT":"0.0000000000000","TIME_SYSTEM":"UTC","REV_AT_EPOCH":"6028","RCS_SIZE":"LARGE","MEAN_ELEMENT_THEORY":"SGP4","BSTAR":"0.00000233540000","TLE_LINE2":"2 47804  53.0561 202.4929 0001643  61.2788 298.8366 15.06405823 60281"},{"TIME_SYSTEM":"UTC","MEAN_MOTION_DDOT":"0.0000000000000","TLE_LINE2":"2 47805  53.0553 202.7369 0001568  57.7662 302.3478 15.06411931 60283","MEAN_ELEMENT_THEORY":"SGP4","RCS_SIZE":"LARGE","BSTAR":"0.00014487000000","REV_AT_EPOCH":"6028","TLE_LINE1":"1 47805U 21018U   22092.64977419  .00001878  00000-0  14487-3 0  9999","OBJECT_ID":"2021-018U","OBJECT_NAME":"STARLINK-2386","PERIOD":"95.591","PERIAPSIS":"546.091","MEAN_MOTION":"15.06411931","EPHEMERIS_TYPE":"0","SEMIMAJOR_AXIS":"6925.312","DECAY_DATE":null,"ECCENTRICITY":"0.00015680","CENTER_NAME":"EARTH","FILE":"3385473","GP_ID":"200322516","REF_FRAME":"TEME","MEAN_ANOMALY":"302.3478","SITE":"AFETR","CLASSIFICATION_TYPE":"U","RA_OF_ASC_NODE":"202.7369","APOAPSIS":"548.263","ARG_OF_PERICENTER":"57.7662","OBJECT_TYPE":"PAYLOAD","EPOCH":"2022-04-02T15:35:40.490016","MEAN_MOTION_DOT":"0.00001878","NORAD_CAT_ID":"47805","LAUNCH_DATE":"2021-03-11","ELEMENT_SET_NO":"999","COUNTRY_CODE":"US","INCLINATION":"53.0553"},{"CENTER_NAME":"EARTH","FILE":"3385473","GP_ID":"200322766","REF_FRAME":"TEME","MEAN_ANOMALY":"304.5887","SITE":"AFETR","RA_OF_ASC_NODE":"217.3259","CLASSIFICATION_TYPE":"U","APOAPSIS":"548.409","ARG_OF_PERICENTER":"55.5263","OBJECT_TYPE":"PAYLOAD","MEAN_MOTION_DOT":"-0.00000987","EPOCH":"2022-04-02T17:49:03.027360","NORAD_CAT_ID":"47806","LAUNCH_DATE":"2021-03-11","COUNTRY_CODE":"US","INCLINATION":"53.0539","ELEMENT_SET_NO":"999","TIME_SYSTEM":"UTC","MEAN_MOTION_DDOT":"0.0000000000000","BSTAR":"-0.00004736900000","RCS_SIZE":"LARGE","MEAN_ELEMENT_THEORY":"SGP4","TLE_LINE2":"2 47806  53.0539 217.3259 0001711  55.5263 304.5887 15.06396693 60141","REV_AT_EPOCH":"6014","TLE_LINE1":"1 47806U 21018V   22092.74239615 -.00000987  00000-0 -47369-4 0  9998","OBJECT_ID":"2021-018V","PERIOD":"95.592","PERIAPSIS":"546.039","OBJECT_NAME":"STARLINK-2387","EPHEMERIS_TYPE":"0","MEAN_MOTION":"15.06396693","SEMIMAJOR_AXIS":"6925.359","ECCENTRICITY":"0.00017110","DECAY_DATE":null},{"EPHEMERIS_TYPE":"0","MEAN_MOTION":"15.06395112","ECCENTRICITY":"0.00015810","DECAY_DATE":null,"SEMIMAJOR_AXIS":"6925.364","OBJECT_ID":"2021-018W","TLE_LINE1":"1 47807U 21018W   22092.60006640  .00000587  00000-0  58300-4 0  9995","PERIAPSIS":"546.134","PERIOD":"95.592","OBJECT_NAME":"STARLINK-2388","REV_AT_EPOCH":"6040","RCS_SIZE":"LARGE","BSTAR":"0.00005830000000","MEAN_ELEMENT_THEORY":"SGP4","TLE_LINE2":"2 47807  53.0561 192.9659 0001581  62.2313 297.8837 15.06395112 60408","TIME_SYSTEM":"UTC","MEAN_MOTION_DDOT":"0.0000000000000","NORAD_CAT_ID":"47807","MEAN_MOTION_DOT":"0.00000587","EPOCH":"2022-04-02T14:24:05.736960","INCLINATION":"53.0561","COUNTRY_CODE":"US","ELEMENT_SET_NO":"999","LAUNCH_DATE":"2021-03-11","OBJECT_TYPE":"PAYLOAD","ARG_OF_PERICENTER":"62.2313","SITE":"AFETR","REF_FRAME":"TEME","MEAN_ANOMALY":"297.8837","APOAPSIS":"548.323","RA_OF_ASC_NODE":"192.9659","CLASSIFICATION_TYPE":"U","FILE":"3385473","GP_ID":"200323017","CENTER_NAME":"EARTH"},{"MEAN_MOTION":"15.06406389","EPHEMERIS_TYPE":"0","DECAY_DATE":null,"ECCENTRICITY":"0.00016430","SEMIMAJOR_AXIS":"6925.329","OBJECT_ID":"2021-018X","TLE_LINE1":"1 47808U 21018X   22092.62907186  .00001555  00000-0  12322-3 0  9992","OBJECT_NAME":"STARLINK-2389","PERIOD":"95.592","PERIAPSIS":"546.056","REV_AT_EPOCH":"6012","TLE_LINE2":"2 47808  53.0531 217.8454 0001643  60.1261 299.9891 15.06406389 60125","RCS_SIZE":"LARGE","BSTAR":"0.00012322000000","MEAN_ELEMENT_THEORY":"SGP4","TIME_SYSTEM":"UTC","MEAN_MOTION_DDOT":"0.0000000000000","NORAD_CAT_ID":"47808","EPOCH":"2022-04-02T15:05:51.808704","MEAN_MOTION_DOT":"0.00001555","ELEMENT_SET_NO":"999","INCLINATION":"53.0531","COUNTRY_CODE":"US","LAUNCH_DATE":"2021-03-11","OBJECT_TYPE":"PAYLOAD","ARG_OF_PERICENTER":"60.1261","SITE":"AFETR","REF_FRAME":"TEME","MEAN_ANOMALY":"299.9891","APOAPSIS":"548.332","CLASSIFICATION_TYPE":"U","RA_OF_ASC_NODE":"217.8454","GP_ID":"200323768","FILE":"3385473","CENTER_NAME":"EARTH"}];
